CCSDS_OEM_VERS = 2.0
CREATION_DATE  = 2024-01-12T23:29:28.877
ORIGINATOR     = NASA/JSC/FOD/TOPO

META_START
OBJECT_NAME          = ISS
OBJECT_ID            = 1998-067-A
CENTER_NAME          = Earth
REF_FRAME            = EME2000
TIME_SYSTEM          = UTC
START_TIME           = 2024-01-12T17:23:33.082
USEABLE_START_TIME   = 2024-01-12T17:23:33.082
USEABLE_STOP_TIME    = 2024-01-27T17:23:33.082
STOP_TIME            = 2024-01-27T17:23:33.082
META_STOP

COMMENT Source: This file was produced by the TOPO office within FOD at JSC.
COMMENT Units are in kg and m^2
COMMENT MASS=451043.00
COMMENT DRAG_AREA=1681.40
COMMENT DRAG_COEFF=2.30
COMMENT SOLAR_RAD_AREA=0.00
COMMENT SOLAR_RAD_COEFF=0.00
COMMENT Orbits start at the ascending node epoch
COMMENT ISS first asc. node: EPOCH = 2024-01-12T17:38:16.337 $ ORBIT = 3428 $ LAN(DEG) = -5.73836
COMMENT ISS last asc. node : EPOCH = 2024-01-27T16:43:02.753 $ ORBIT = 3660 $ LAN(DEG) = -80.75715
COMMENT Begin sequence of events
COMMENT TRAJECTORY EVENT SUMMARY:
COMMENT 
COMMENT |       EVENT        |       TIG        | ORB |   DV    |   HA    |   HP    |
COMMENT |                    |       GMT        |     |   M/S   |   KM    |   KM    |
COMMENT |                    |                  |     |  (F/S)  |  (NM)   |  (NM)   |
COMMENT =============================================================================
COMMENT  Ax-3 Launch           017:22:11:25.000             0.0     426.8     408.8
COMMENT                                                    (0.0)   (230.4)   (220.8)
COMMENT 
COMMENT  Ax-3 Docking          019:10:15:00.000             0.0     426.9     408.7
COMMENT                                                    (0.0)   (230.5)   (220.7)
COMMENT 
COMMENT =============================================================================
COMMENT End sequence of events
2024-01-25T14:23:00.000 -3449.511238557080 5788.275103069900 859.599708688001 -4.51925665634187 -1.80231987669148 -5.92317811101634
2024-01-25T14:27:00.000 -4395.219772048710 5150.049596151740 -576.021885105292 -3.31362166655000 -3.48343123499488 -5.96693070576846
2024-01-25T14:31:00.000 -5020.824230516270 4136.723893366470 -1969.591064259790 -1.86825054243044 -4.90900672484052 -5.57507839338442
2024-01-25T14:35:00.000 -5281.284550506900 2822.521485660650 -3219.528377690400 -0.28948348521742 -5.97555894776175 -4.77758090903065
2024-01-25T14:39:00.000 -5158.322200604410 1303.370872118270 -4235.075322496660 1.30745044891992 -6.60675146111127 -3.63397647882974
2024-01-25T14:43:00.000 -4661.516526244670 -310.266958137398 -4942.828473168870 2.80705497154838 -6.75845485237334 -2.22836449777347
2024-01-25T14:47:00.000 -3827.361992586150 -1901.473919972870 -5291.866225540870 4.10183815070337 -6.42114649298848 -0.66280892783410
2024-01-25T14:51:00.000 -2716.466532421540 -3355.207694923060 -5257.190141232410 5.09942450381151 -5.61980667065377 0.94997866331131
2024-01-25T14:55:00.000 -1409.188500852410 -4566.379616393780 -4841.371264477440 5.72850031110826 -4.41191129010134 2.49423825222939
2024-01-25T14:59:00.000 0.013461213200 -5447.230617384690 -4074.360292230840 5.94355041362436 -2.88361564610957 3.85884757149108
2024-01-25T15:03:00.000 1409.197085769700 -5933.585930145110 -3011.463018641440 5.72814721058007 -1.14424389725036 4.94487072838298
2024-01-25T15:07:00.000 2716.150044066860 -5989.591267200910 -1729.553425677820 5.09660440066967 0.68083391622306 5.67261222404843
2024-01-25T15:11:00.000 3825.789904520670 -5610.549847059570 -321.688772800500 4.09377071571735 2.45894700235581 5.98787313611346
2024-01-25T15:15:00.000 4657.188975612620 -4823.491049739420 1109.613589016830 2.79205564921791 4.06004865720230 5.86657045686081
2024-01-25T15:19:00.000 5149.608843613370 -3685.350897798970 2459.908803144920 1.28625821387299 5.36657623663423 5.31688459365725
2024-01-25T15:23:00.000 5267.054471781710 -2278.854866298070 3630.569790854430 -0.31354168420608 6.28257877421918 4.37881049866385
2024-01-25T15:27:00.000 5000.946898446660 -706.407124486073 4536.097880492350 -1.89043186689399 6.74103962691712 3.12102128468510
2024-01-25T15:31:00.000 4370.702844126730 917.477736258073 5110.397127153300 -3.32947686503592 6.70862306865015 1.63549265464440
2024-01-25T15:35:00.000 3422.241844744040 2474.560278734530 5311.559042091530 -4.52607204733513 6.18774880143527 0.03056051173578
2024-01-25T15:39:00.000 2224.600963569640 3851.451081596670 5124.862393182360 -5.39330388060665 5.21614500418370 -1.57691190297365
2024-01-25T15:43:00.000 864.936871103546 4947.803156853340 4563.826537484050 -5.86797456384402 3.86413951586566 -3.06983763057380
2024-01-25T15:47:00.000 -557.745781158184 5683.597552586360 3669.273455120950 -5.91518022029240 2.22982433537093 -4.33913693098929
2024-01-25T15:51:00.000 -1939.762774771620 6005.025904288070 2506.449813766100 -5.53112258211243 0.43227977380401 -5.29161187724776
2024-01-25T15:55:00.000 -3180.340333883520 5888.557963029900 1160.328482315750 -4.74376642702894 -1.39685002609402 -5.85718612205075
2024-01-25T15:59:00.000 -4189.069798839970 5342.771240598270 -270.641808342601 -3.61102270185908 -3.12331393694028 -5.99436838960779
2024-01-25T16:03:00.000 -4892.646240665840 4407.756012315480 -1681.853339815170 -2.21659838503671 -4.62052125898552 -5.69371376637051
2024-01-25T16:07:00.000 -5240.290340678670 3152.044828002590 -2970.373315339380 -0.66320830201115 -5.77954838987231 -4.97844847165853
2024-01-25T16:11:00.000 -5207.350588665990 1667.372553319530 -4042.559540927530 0.93555055647629 -6.51713064078104 -3.90218355348225
2024-01-25T16:15:00.000 -4796.882239704870 61.782860108231 -4820.838299650850 2.46382018762464 -6.78135403071070 -2.54427717088623
2024-01-25T16:19:00.000 -4039.173882052950 -1548.306231725800 -5249.154636645100 3.81183548625231 -6.55461483863499 -1.00356054516283
2024-01-25T16:23:00.000 -2989.372577772870 -3046.445546863860 -5296.798877249490 4.88336608794262 -5.85415128178970 0.60885613607248
2024-01-25T16:27:00.000 -1723.464164359820 -4324.352671589670 -4960.435821213750 5.60190216923107 -4.73036004022497 2.17722378399447
2024-01-25T16:31:00.000 -332.919108356207 -5289.500388859470 -4264.303474842920 5.91564803937072 -3.26342496795872 3.58879565550646
2024-01-25T16:35:00.000 1081.710412041780 -5871.684324447070 -3258.577218147550 5.80121084444685 -1.55818612897143 4.74142302066947
2024-01-25T16:39:00.000 2417.892053725270 -6028.152656058470 -2015.947206670480 5.26568035508978 0.26269534342259 5.55078115744387
2024-01-25T16:43:00.000 3578.489904555920 -5746.905188553230 -626.545218243062 4.34676051806022 2.06714645252134 5.95683099238807
2024-01-25T16:47:00.000 4478.888804580950 -5047.818309200820 808.515955817235 3.11055076773521 3.72325072985928 5.92876388809057
2024-01-25T16:51:00.000 5053.329651563190 -3981.391713512890 2184.549053600850 1.64709738015251 5.10944406376961 5.46787776791040
2024-01-25T16:55:00.000 5259.845138009790 -2625.086605830690 3401.068157432830 0.06331217306313 6.12403679890530 4.60762076539670
2024-01-25T16:59:00.000 5083.348222724940 -1077.615722138780 4369.223172382670 -1.52510889423253 6.69271435030948 3.41089467127274
2024-01-25T17:03:00.000 4536.712867851450 548.328322652628 5018.335675902700 -3.00231110812890 6.77399539468379 1.96524917234515
2024-01-25T17:07:00.000 3659.775762040820 2134.349903890610 5301.041698807590 -4.26084112790289 6.36207037627381 0.37617974409701
2024-01-25T17:11:00.000 2516.375425520110 3564.964533230770 5196.676186172010 -5.20929393216927 5.48679932079451 -1.24063840949549
2024-01-25T17:15:00.000 1189.718109183530 4735.932294099050 4712.753620318540 -5.77861962582712 4.21149390349722 -2.76743745577091
2024-01-25T17:19:00.000 -223.610790463081 5561.814508971740 3884.465249925320 -5.92707828037078 2.62861431532730 -4.09272929130946
2024-01-25T17:23:00.000 -1620.627945942210 5982.239053431650 2772.200042937760 -5.64346150424723 0.85338884371091 -5.11929698307965
2024-01-25T17:27:00.000 -2899.468536340460 5966.434667147350 1457.217551141560 -4.94832927409271 -0.98425155046286 -5.77160793037489
2024-01-25T17:31:00.000 -3966.921772468720 5515.604478018490 35.681147391501 -3.89279593886724 -2.74949408579901 -6.00180728416197
2024-01-25T17:35:00.000 -4745.353870035440 4662.868575567030 -1388.475791683260 -2.55475692083020 -4.31286620328456 -5.79344094206022
2024-01-25T17:39:00.000 -5178.465185049940 3470.768358987360 -2711.313081691840 -1.03289558317308 -5.56031224511067 -5.16289788597350
2024-01-25T17:43:00.000 -5235.347071906980 2026.466335311450 -3836.616180887430 0.56127803954758 -6.40193746788923 -4.15763375445961
2024-01-25T17:47:00.000 -4912.539644005250 435.158690762807 -4682.892878774040 2.11199612006063 -6.77819260904274 -2.85201186839470
2024-01-25T17:51:00.000 -4234.022953234790 -1187.689827901860 -5189.136182800690 3.50768917009566 -6.66342381173558 -1.34128214635535
2024-01-25T17:55:00.000 -3249.282066653630 -2724.659710998130 -5319.011904175690 4.64858604652522 -6.06697851682116 0.26543613707707
2024-01-25T17:59:00.000 -2029.657997441210 -4064.674180114040 -5063.284927951810 5.45331334001341 -5.03199612300973 1.85272517632431
2024-01-25T18:03:00.000 -663.283954464838 -5110.775499642440 -4440.403024657550 5.86406449366608 -3.63236051627319 3.30657677468988
2024-01-25T18:07:00.000 751.076181235909 -5786.977009344210 -3495.247207275240 5.85061562939867 -1.96800759875880 4.52198599954977
2024-01-25T18:11:00.000 2110.980563602280 -6043.771356826260 -2296.079377217540 5.41281017045728 -0.15844580740910 5.41029379544283
2024-01-25T18:15:00.000 3317.641329677960 -5861.889734567000 -929.805934049402 4.58118972151988 1.66531006289015 5.90581079659205
2024-01-25T18:19:00.000 4283.150955196220 -5253.953850239140 504.216954879249 3.41539984956213 3.37019646237564 5.97122893887219
2024-01-25T18:23:00.000 4937.018378064500 -4263.754119149120 1901.431971778340 2.00005931089204 4.83118772737888 5.60083963249381
